0 COSMOS 465
1 05683U 71111A   13281.84579285  .00000014  00000-0  38403-4 0  5685
2 05683 074.0280 073.3172 0026546 118.8412 346.6881 13.74081657 96986
0 COSMOS 465
1 05683U 71111A   13283.01747551  .00000009  00000-0  33310-4 0  5696
2 05683 074.0282 071.3752 0026543 116.5318 022.7566 13.74082078 97146
0 COSMOS 465
1 05683U 71111A   13285.85072638 -.00000022  00000-0  54638-6 0  5714
2 05683 074.0288 066.6794 0026537 111.0100 358.1960 13.74082394 97535
0 COSMOS 465
1 05683U 71111A   13286.94861775 -.00000023  00000-0 -10192-5 0  5722
2 05683 074.0291 064.8598 0026509 108.8786 029.2045 13.74082452 97685
0 COSMOS 465
1 05683U 71111A   13287.96633691 -.00000010  00000-0  12739-4 0  5733
2 05683 074.0294 063.1732 0026497 106.9058 023.6180 13.74082453 97822
0 COSMOS 465
1 05683U 71111A   13289.47559132 -.00000003  00000-0  20374-4 0  5745
2 05683 074.0296 060.6720 0026462 103.9963 289.5225 13.74082457 98038
0 COSMOS 465
1 05683U 71111A   13290.72656138  .00000026  00000-0  50736-4 0  5759
2 05683 074.0298 058.5990 0026469 101.5498 357.7951 13.74082306 98205
0 COSMOS 465
1 05683U 71111A   13291.82073644  .00000029  00000-0  54282-4 0  5760
2 05683 074.0299 056.7858 0026456 099.4053 010.4402 13.74082356 98352
0 COSMOS 465
1 05683U 71111A   13292.84060139  .00000038  00000-0  64368-4 0  5775
2 05683 074.0299 055.0956 0026476 097.4460 015.4508 13.74082447 98493
0 COSMOS 465
1 05683U 71111A   13293.93797285  .00000035  00000-0  61078-4 0  5788
2 05683 074.0299 053.2770 0026486 095.3033 043.9003 13.74082689 98642
0 COSMOS 465
1 05683U 71111A   13294.95776929  .00000018  00000-0  42952-4 0  5795
2 05683 074.0300 051.5870 0026484 093.3154 048.6004 13.74082764 98789
